start=new Date('2022-08-11T00:00:00.000Z').valueOf();
sats=[{"CLASSIFICATION_TYPE":"U","OBJECT_NAME":"STARLINK-1063","TLE_LINE2":"2 44768  53.0556 333.5144 0001297  88.1394 271.9743 15.06393713151222","RCS_SIZE":"LARGE","MEAN_ELEMENT_THEORY":"SGP4","SITE":"AFETR","REF_FRAME":"TEME","MEAN_MOTION":"15.06393713","MEAN_MOTION_DOT":"0.00001299","SEMIMAJOR_AXIS":"6925.368","TLE_LINE1":"1 44768U 19074BH  22222.78883285  .00001299  00000-0  10610-3 0  9991","CENTER_NAME":"EARTH","RA_OF_ASC_NODE":"333.5144","OBJECT_ID":"2019-074BH","PERIOD":"95.593","MEAN_MOTION_DDOT":"0.0000000000000","ELEMENT_SET_NO":"999","GP_ID":"209994214","ECCENTRICITY":"0.00012970","EPHEMERIS_TYPE":"0","DECAY_DATE":null,"COUNTRY_CODE":"US","APOAPSIS":"548.131","LAUNCH_DATE":"2019-11-11","NORAD_CAT_ID":"44768","PERIAPSIS":"546.335","EPOCH":"2022-08-10T18:55:55.158240","BSTAR":"0.00010610000000","REV_AT_EPOCH":"15122","MEAN_ANOMALY":"271.9743","OBJECT_TYPE":"PAYLOAD","TIME_SYSTEM":"UTC","INCLINATION":"53.0556","FILE":"3533963","ARG_OF_PERICENTER":"88.1394"},{"OBJECT_TYPE":"PAYLOAD","BSTAR":"0.00087456000000","MEAN_ANOMALY":"227.4581","REV_AT_EPOCH":"15137","ARG_OF_PERICENTER":"132.6484","FILE":"3533800","INCLINATION":"53.0022","TIME_SYSTEM":"UTC","PERIAPSIS":"511.829","EPOCH":"2022-08-10T06:51:48.607200","APOAPSIS":"512.998","COUNTRY_CODE":"US","DECAY_DATE":null,"EPHEMERIS_TYPE":"0","NORAD_CAT_ID":"44770","LAUNCH_DATE":"2019-11-11","ELEMENT_SET_NO":"999","ECCENTRICITY":"0.00008480","GP_ID":"209965701","RA_OF_ASC_NODE":"316.2291","CENTER_NAME":"EARTH","TLE_LINE1":"1 44770U 19074BK  22222.28597925  .00017640  00000-0  87456-3 0  9991","MEAN_MOTION_DDOT":"0.0000000000000","PERIOD":"94.873","OBJECT_ID":"2019-074BK","MEAN_MOTION":"15.17826325","MEAN_MOTION_DOT":"0.00017640","SEMIMAJOR_AXIS":"6890.548","MEAN_ELEMENT_THEORY":"SGP4","RCS_SIZE":"LARGE","REF_FRAME":"TEME","SITE":"AFETR","TLE_LINE2":"2 44770  53.0022 316.2291 0000848 132.6484 227.4581 15.17826325151374","OBJECT_NAME":"STARLINK-1065","CLASSIFICATION_TYPE":"U"},{"PERIAPSIS":"546.308","EPOCH":"2022-08-10T10:42:17.106048","REV_AT_EPOCH":"15116","BSTAR":"-0.00006206100000","MEAN_ANOMALY":"278.4049","OBJECT_TYPE":"PAYLOAD","INCLINATION":"53.0563","TIME_SYSTEM":"UTC","FILE":"3533800","ARG_OF_PERICENTER":"81.7095","ELEMENT_SET_NO":"999","GP_ID":"209966443","ECCENTRICITY":"0.00013660","EPHEMERIS_TYPE":"0","APOAPSIS":"548.200","COUNTRY_CODE":"US","DECAY_DATE":null,"LAUNCH_DATE":"2019-11-11","NORAD_CAT_ID":"44771","MEAN_MOTION":"15.06386710","MEAN_MOTION_DOT":"-0.00001205","SEMIMAJOR_AXIS":"6925.389","TLE_LINE1":"1 44771U 19074BL  22222.44603132 -.00001205  00000-0 -62061-4 0  9996","RA_OF_ASC_NODE":"335.0619","CENTER_NAME":"EARTH","PERIOD":"95.593","OBJECT_ID":"2019-074BL","MEAN_MOTION_DDOT":"0.0000000000000","CLASSIFICATION_TYPE":"U","TLE_LINE2":"2 44771  53.0563 335.0619 0001366  81.7095 278.4049 15.06386710151165","OBJECT_NAME":"STARLINK-1067","RCS_SIZE":"LARGE","MEAN_ELEMENT_THEORY":"SGP4","SITE":"AFETR","REF_FRAME":"TEME"},{"NORAD_CAT_ID":"44772","LAUNCH_DATE":"2019-11-11","DECAY_DATE":null,"COUNTRY_CODE":"US","APOAPSIS":"548.333","EPHEMERIS_TYPE":"0","ECCENTRICITY":"0.00015280","GP_ID":"209993486","ELEMENT_SET_NO":"999","FILE":"3533963","ARG_OF_PERICENTER":"85.8494","TIME_SYSTEM":"UTC","INCLINATION":"53.0546","OBJECT_TYPE":"PAYLOAD","MEAN_ANOMALY":"274.2669","BSTAR":"-0.00035721000000","REV_AT_EPOCH":"15146","EPOCH":"2022-08-10T15:15:38.384352","PERIAPSIS":"546.217","REF_FRAME":"TEME","SITE":"AFETR","MEAN_ELEMENT_THEORY":"SGP4","RCS_SIZE":"LARGE","OBJECT_NAME":"STARLINK-1068","TLE_LINE2":"2 44772  53.0546 314.2164 0001528  85.8494 274.2669 15.06379905151462","CLASSIFICATION_TYPE":"U","MEAN_MOTION_DDOT":"0.0000000000000","OBJECT_ID":"2019-074BM","PERIOD":"95.593","CENTER_NAME":"EARTH","RA_OF_ASC_NODE":"314.2164","TLE_LINE1":"1 44772U 19074BM  22222.63586093 -.00005595  00000-0 -35721-3 0  9992","MEAN_MOTION_DOT":"-0.00005595","SEMIMAJOR_AXIS":"6925.410","MEAN_MOTION":"15.06379905"},{"SEMIMAJOR_AXIS":"6925.390","MEAN_MOTION_DOT":"-0.00002870","MEAN_MOTION":"15.06386603","MEAN_MOTION_DDOT":"0.0000000000000","PERIOD":"95.593","OBJECT_ID":"2020-001A","RA_OF_ASC_NODE":"93.2374","CENTER_NAME":"EARTH","TLE_LINE1":"1 44914U 20001A   22222.85149117 -.00002870  00000-0 -17393-3 0  9996","TLE_LINE2":"2 44914  53.0553  93.2374 0001929  82.4248 277.6960 15.06386603142879","OBJECT_NAME":"STARLINK-1073","CLASSIFICATION_TYPE":"U","REF_FRAME":"TEME","SITE":"AFETR","MEAN_ELEMENT_THEORY":"SGP4","RCS_SIZE":"LARGE","EPOCH":"2022-08-10T20:26:08.837088","PERIAPSIS":"545.919","FILE":"3533963","ARG_OF_PERICENTER":"82.4248","INCLINATION":"53.0553","TIME_SYSTEM":"UTC","OBJECT_TYPE":"PAYLOAD","BSTAR":"-0.00017393000000","REV_AT_EPOCH":"14287","MEAN_ANOMALY":"277.6960","ECCENTRICITY":"0.00019290","GP_ID":"209992999","ELEMENT_SET_NO":"999","NORAD_CAT_ID":"44914","LAUNCH_DATE":"2020-01-07","APOAPSIS":"548.591","DECAY_DATE":null,"COUNTRY_CODE":"US","EPHEMERIS_TYPE":"0"},{"MEAN_MOTION":"15.06380329","MEAN_MOTION_DOT":"-0.00001646","SEMIMAJOR_AXIS":"6925.409","CENTER_NAME":"EARTH","RA_OF_ASC_NODE":"93.4099","TLE_LINE1":"1 44915U 20001B   22222.81462511 -.00001646  00000-0 -91666-4 0  9995","MEAN_MOTION_DDOT":"0.0000000000000","OBJECT_ID":"2020-001B","PERIOD":"95.593","OBJECT_NAME":"STARLINK-1084","TLE_LINE2":"2 44915  53.0557  93.4099 0001473  78.2160 281.8995 15.06380329142874","CLASSIFICATION_TYPE":"U","MEAN_ELEMENT_THEORY":"SGP4","RCS_SIZE":"LARGE","REF_FRAME":"TEME","SITE":"AFETR","PERIAPSIS":"546.254","EPOCH":"2022-08-10T19:33:03.609504","OBJECT_TYPE":"PAYLOAD","MEAN_ANOMALY":"281.8995","BSTAR":"-0.00009166600000","REV_AT_EPOCH":"14287","ARG_OF_PERICENTER":"78.2160","FILE":"3533963","TIME_SYSTEM":"UTC","INCLINATION":"53.0557","ELEMENT_SET_NO":"999","ECCENTRICITY":"0.00014730","GP_ID":"209993248","COUNTRY_CODE":"US","DECAY_DATE":null,"APOAPSIS":"548.294","EPHEMERIS_TYPE":"0","NORAD_CAT_ID":"44915","LAUNCH_DATE":"2020-01-07"},{"GP_ID":"209993500","ECCENTRICITY":"0.00014630","ELEMENT_SET_NO":"999","LAUNCH_DATE":"2020-01-07","NORAD_CAT_ID":"44917","EPHEMERIS_TYPE":"0","APOAPSIS":"548.246","DECAY_DATE":null,"COUNTRY_CODE":"US","EPOCH":"2022-08-10T18:02:49.041600","PERIAPSIS":"546.220","INCLINATION":"53.0538","TIME_SYSTEM":"UTC","FILE":"3533963","ARG_OF_PERICENTER":"76.0586","BSTAR":"-0.00002115800000","MEAN_ANOMALY":"284.0565","REV_AT_EPOCH":"14286","OBJECT_TYPE":"PAYLOAD","CLASSIFICATION_TYPE":"U","TLE_LINE2":"2 44917  53.0538  93.6862 0001463  76.0586 284.0565 15.06393612142868","OBJECT_NAME":"STARLINK-1098","SITE":"AFETR","REF_FRAME":"TEME","RCS_SIZE":"LARGE","MEAN_ELEMENT_THEORY":"SGP4","SEMIMAJOR_AXIS":"6925.368","MEAN_MOTION_DOT":"-0.00000597","MEAN_MOTION":"15.06393612","PERIOD":"95.593","OBJECT_ID":"2020-001D","MEAN_MOTION_DDOT":"0.0000000000000","TLE_LINE1":"1 44917U 20001D   22222.75195650 -.00000597  00000-0 -21158-4 0  9990","RA_OF_ASC_NODE":"93.6862","CENTER_NAME":"EARTH"},{"RCS_SIZE":"LARGE","MEAN_ELEMENT_THEORY":"SGP4","SITE":"AFETR","REF_FRAME":"TEME","CLASSIFICATION_TYPE":"U","TLE_LINE2":"2 44918  53.0546  93.3477 0001441  92.0496 268.0658 15.06382678143610","OBJECT_NAME":"STARLINK-1099","TLE_LINE1":"1 44918U 20001E   22222.83211181 -.00002295  00000-0 -13526-3 0  9994","RA_OF_ASC_NODE":"93.3477","CENTER_NAME":"EARTH","PERIOD":"95.593","OBJECT_ID":"2020-001E","MEAN_MOTION_DDOT":"0.0000000000000","MEAN_MOTION":"15.06382678","SEMIMAJOR_AXIS":"6925.402","MEAN_MOTION_DOT":"-0.00002295","EPHEMERIS_TYPE":"0","APOAPSIS":"548.265","COUNTRY_CODE":"US","DECAY_DATE":null,"LAUNCH_DATE":"2020-01-07","NORAD_CAT_ID":"44918","ELEMENT_SET_NO":"999","GP_ID":"209993729","ECCENTRICITY":"0.00014410","MEAN_ANOMALY":"268.0658","BSTAR":"-0.00013526000000","REV_AT_EPOCH":"14361","OBJECT_TYPE":"PAYLOAD","INCLINATION":"53.0546","TIME_SYSTEM":"UTC","FILE":"3533963","ARG_OF_PERICENTER":"92.0496","PERIAPSIS":"546.269","EPOCH":"2022-08-10T19:58:14.460384"},{"MEAN_MOTION_DDOT":"0.0000000000000","OBJECT_ID":"2020-001G","PERIOD":"95.593","CENTER_NAME":"EARTH","RA_OF_ASC_NODE":"93.8807","TLE_LINE1":"1 44920U 20001G   22222.71141062  .00003115  00000-0  22800-3 0  9999","MEAN_MOTION_DOT":"0.00003115","SEMIMAJOR_AXIS":"6925.390","MEAN_MOTION":"15.06386501","REF_FRAME":"TEME","SITE":"AFETR","MEAN_ELEMENT_THEORY":"SGP4","RCS_SIZE":"LARGE","OBJECT_NAME":"STARLINK-1102","TLE_LINE2":"2 44920  53.0572  93.8807 0001035  88.0379 272.0729 15.06386501142856","CLASSIFICATION_TYPE":"U","ARG_OF_PERICENTER":"88.0379","FILE":"3533963","TIME_SYSTEM":"UTC","INCLINATION":"53.0572","OBJECT_TYPE":"PAYLOAD","BSTAR":"0.00022800000000","MEAN_ANOMALY":"272.0729","REV_AT_EPOCH":"14285","EPOCH":"2022-08-10T17:04:25.877568","PERIAPSIS":"546.538","NORAD_CAT_ID":"44920","LAUNCH_DATE":"2020-01-07","COUNTRY_CODE":"US","DECAY_DATE":null,"APOAPSIS":"547.972","EPHEMERIS_TYPE":"0","ECCENTRICITY":"0.00010350","GP_ID":"209992501","ELEMENT_SET_NO":"999"},{"EPHEMERIS_TYPE":"0","DECAY_DATE":null,"COUNTRY_CODE":"US","APOAPSIS":"548.165","LAUNCH_DATE":"2020-01-07","NORAD_CAT_ID":"44921","ELEMENT_SET_NO":"999","GP_ID":"209992751","ECCENTRICITY":"0.00013750","BSTAR":"-0.00007733000000","REV_AT_EPOCH":"14285","MEAN_ANOMALY":"272.5107","OBJECT_TYPE":"PAYLOAD","TIME_SYSTEM":"UTC","INCLINATION":"53.0564","FILE":"3533963","ARG_OF_PERICENTER":"87.6040","PERIAPSIS":"546.260","EPOCH":"2022-08-10T20:45:59.565600","RCS_SIZE":"LARGE","MEAN_ELEMENT_THEORY":"SGP4","SITE":"AFETR","REF_FRAME":"TEME","CLASSIFICATION_TYPE":"U","OBJECT_NAME":"STARLINK-1103","TLE_LINE2":"2 44921  53.0564  93.1719 0001375  87.6040 272.5107 15.06400387142854","TLE_LINE1":"1 44921U 20001H   22222.86527275 -.00001433  00000-0 -77330-4 0  9992","CENTER_NAME":"EARTH","RA_OF_ASC_NODE":"93.1719","OBJECT_ID":"2020-001H","PERIOD":"95.592","MEAN_MOTION_DDOT":"0.0000000000000","MEAN_MOTION":"15.06400387","MEAN_MOTION_DOT":"-0.00001433","SEMIMAJOR_AXIS":"6925.347"}];
